[ {"name": "STARLINK-5344", "line1": "1 55494U 23015AX  26139.49998874  .00000128  00000+0  14166-4 0  9999", "line2": "2 55494  43.0048 299.9253 0001347 267.1587  92.9110 15.27577893181420"}, {"name": "STARLINK-5100", "line1": "1 55495U 23015AY  26139.76121922  .00000273  00000+0  19437-4 0  9999", "line2": "2 55495  43.0021 280.1258 0001005 246.8669 113.2077 15.27583674181675"}, {"name": "STARLINK-5363", "line1": "1 55497U 23015BA  26139.50384654  .00000025  00000+0  10450-4 0  9997", "line2": "2 55497  43.0069 299.9497 0002202 274.3675  85.6925 15.27572700181420"}, {"name": "STARLINK-5365", "line1": "1 55498U 23015BB  26139.84105441  .00001137  00000+0  50853-4 0  9996", "line2": "2 55498  43.0038 298.1774 0001771 262.9737  97.0914 15.27575522181473"}, {"name": "STARLINK-5366", "line1": "1 55499U 23015BC  26139.92556575  .00000977  00000+0  45030-4 0  9996", "line2": "2 55499  43.0023 297.0969 0001246 261.9377  98.1333 15.27581342182248"}, {"name": "STARLINK-5141", "line1": "1 55500U 23015BD  26139.76924230  .00001330  00000+0  57850-4 0  9995", "line2": "2 55500  43.0049 298.5029 0002023 275.2346  84.8275 15.27575754181460"}, {"name": "STARLINK-5367", "line1": "1 55501U 23015BE  26139.71800094  .00002665  00000+0  10633-3 0  9991", "line2": "2 55501  43.0031 298.9648 0001534 275.4032  84.6644 15.27585239181459"}, {"name": "STARLINK-5749", "line1": "1 55569U 23020A   26139.84812693  .00001378  00000+0  62545-4 0  9993", "line2": "2 55569  43.0029 326.9165 0001862 271.9661  88.0977 15.25905408180828"}, {"name": "STARLINK-5737", "line1": "1 55570U 23020B   26139.84170276  .00001457  00000+0  62486-4 0  9991", "line2": "2 55570  43.0058 323.4547 0001580 263.0163  97.0509 15.27573575179797"}, {"name": "STARLINK-5739", "line1": "1 55571U 23020C   26139.83478405 -.00000302  00000+0 -14599-5 0  9999", "line2": "2 55571  43.0043 326.8139 0001402 271.3137  88.7554 15.27572609179752"}, {"name": "STARLINK-5732", "line1": "1 55572U 23020D   26139.83220963  .00000550  00000+0  29506-4 0  9990", "line2": "2 55572  43.0029 326.7982 0001085 269.2441  90.8286 15.27577498179750"}, {"name": "STARLINK-5738", "line1": "1 55573U 23020E   26139.82835512  .00000650  00000+0  33140-4 0  9992", "line2": "2 55573  43.0020 326.7658 0001196 270.2793  89.7921 15.27573583179751"}, {"name": "STARLINK-5747", "line1": "1 55574U 23020F   26140.00002315  .00051309  00000+0  18628-2 0  9991", "line2": "2 55574  43.0012 326.2539 0001682 269.3151 124.9008 15.27550660  5873"}, {"name": "STARLINK-5745", "line1": "1 55575U 23020G   26140.00002315  .00062701  00000+0  22702-2 0  9998", "line2": "2 55575  43.0010 325.9675 0001421 282.5908 231.8776 15.27558122  5812"}, {"name": "STARLINK-5751", "line1": "1 55576U 23020H   26139.72043747 -.00004974  00000+0 -17128-3 0  9997", "line2": "2 55576  43.0016 298.2690 0001010 249.1612 110.9132 15.27591091180070"}, {"name": "STARLINK-5752", "line1": "1 55577U 23020J   26139.85324850  .00001022  00000+0  46676-4 0  9999", "line2": "2 55577  43.0009 323.4611 0001713 257.8773 102.1887 15.27579136179794"}, {"name": "STARLINK-5754", "line1": "1 55579U 23020L   26139.89809608  .00001065  00000+0  48231-4 0  9990", "line2": "2 55579  43.0064 323.0155 0001386 273.7013  86.3680 15.27572383179809"}, {"name": "STARLINK-5757", "line1": "1 55580U 23020M   26139.73071683  .00001269  00000+0  55649-4 0  9996", "line2": "2 55580  43.0024 298.3454 0001371 272.0928  87.9766 15.27576685180076"}, {"name": "STARLINK-5753", "line1": "1 55581U 23020N   26139.90609482  .00000493  00000+0  27431-4 0  9996", "line2": "2 55581  43.0044 329.8967 0001235 269.5145  90.5565 15.27577663179723"}, {"name": "STARLINK-5741", "line1": "1 55582U 23020P   26139.46481545  .00000610  00000+0  31685-4 0  9993", "line2": "2 55582  43.0042 314.5188 0001148 264.4193  95.6528 15.27571946179866"}, {"name": "STARLINK-5742", "line1": "1 55583U 23020Q   26139.87496320 -.00000179  00000+0  30295-5 0  9994", "line2": "2 55583  43.0036 322.8469 0001297 261.6790  98.3914 15.27573904179800"}, {"name": "STARLINK-5736", "line1": "1 55584U 23020R   26139.80329606  .00000796  00000+0  38448-4 0  9991", "line2": "2 55584  43.0033 324.0234 0001006 255.7505 104.3235 15.27576541179789"}, {"name": "STARLINK-5769", "line1": "1 55585U 23020S   26139.75077784 -.00000373  00000+0 -40028-5 0  9994", "line2": "2 55585  43.0052 313.2289 0002305 272.4073  87.6515 15.27585024179904"}, {"name": "STARLINK-5767", "line1": "1 55586U 23020T   26139.85197927 -.00000266  00000+0 -12891-6 0  9997", "line2": "2 55586  43.0016 323.5286 0001387 261.6554  98.4140 15.27582069179796"}, {"name": "STARLINK-5727", "line1": "1 55587U 23020U   26139.84554055  .00001288  00000+0  56328-4 0  9990", "line2": "2 55587  43.0038 323.4055 0001481 267.0265  93.0417 15.27577113179790"}, {"name": "STARLINK-5728", "line1": "1 55588U 23020V   26139.84812427  .00001107  00000+0  49749-4 0  9990", "line2": "2 55588  43.0037 323.5026 0001587 265.1829  94.8841 15.27574232179790"}, {"name": "STARLINK-5697", "line1": "1 55589U 23020W   26139.24807762  .00000143  00000+0  14742-4 0  9995", "line2": "2 55589  43.0067 326.7362 0001771 270.1790  89.8858 15.27576690179703"}, {"name": "STARLINK-5762", "line1": "1 55590U 23020X   26139.89551947  .00001056  00000+0  47908-4 0  9993", "line2": "2 55590  43.0054 323.0019 0001560 269.3154  90.7518 15.27573592179803"}, {"name": "STARLINK-5760", "line1": "1 55591U 23020Y   26139.84427410  .00002315  00000+0  93631-4 0  9999", "line2": "2 55591  43.0053 323.4736 0001430 265.2120  94.8568 15.27584874179790"}, {"name": "STARLINK-5759", "line1": "1 55592U 23020Z   26139.81214466  .00000675  00000+0  34038-4 0  9995", "line2": "2 55592  43.0036 323.2325 0000980 264.8949  95.1790 15.27574933179793"}, {"name": "STARLINK-5703", "line1": "1 55593U 23020AA  26139.87367875 -.00002716  00000+0 -89199-4 0  9993", "line2": "2 55593  43.0031 322.8369 0001248 272.5274  87.5435 15.27582134179802"}, {"name": "STARLINK-5750", "line1": "1 55594U 23020AB  26139.81599812  .00000691  00000+0  34633-4 0  9997", "line2": "2 55594  43.0044 323.2625 0001143 270.1318  89.9403 15.27573802179795"}, {"name": "STARLINK-5729", "line1": "1 55596U 23020AD  26139.82627663  .00000381  00000+0  23370-4 0  9998", "line2": "2 55596  43.0045 323.3373 0001201 270.6034  89.4680 15.27577456179795"}, {"name": "STARLINK-5743", "line1": "1 55597U 23020AE  26139.76990657  .00000734  00000+0  36209-4 0  9995", "line2": "2 55597  43.0028 312.5159 0001230 264.4684  95.6027 15.27572987179915"}, {"name": "STARLINK-5756", "line1": "1 55598U 23020AF  26139.54304959 -.00001754  00000+0 -54241-4 0  9997", "line2": "2 55598  43.0061 314.2210 0002305 276.2293  83.8296 15.27568309179876"}, {"name": "STARLINK-5761", "line1": "1 55599U 23020AG  26139.87383758  .00001417  00000+0  61028-4 0  9993", "line2": "2 55599  43.0057 312.4061 0001759 261.1660  98.8992 15.27566816179925"}, {"name": "STARLINK-5755", "line1": "1 55600U 23020AH  26139.78403853  .00000195  00000+0  16622-4 0  9997", "line2": "2 55600  43.0031 312.6099 0001057 271.2106  88.8625 15.27574457179912"}, {"name": "STARLINK-5744", "line1": "1 55601U 23020AJ  26139.80458108  .00000675  00000+0  34040-4 0  9991", "line2": "2 55601  43.0023 324.0239 0001176 260.5948  99.4771 15.27572497179781"}, {"name": "STARLINK-5764", "line1": "1 55602U 23020AK  26139.87768903  .00000338  00000+0  21807-4 0  9999", "line2": "2 55602  43.0039 312.4361 0001682 268.4764  91.5895 15.27578078179928"}, {"name": "STARLINK-5735", "line1": "1 55603U 23020AL  26139.84558710 -.00001493  00000+0 -44761-4 0  9999", "line2": "2 55603  43.0054 312.2187 0001049 272.6262  87.4470 15.27559550179924"}, {"name": "STARLINK-5748", "line1": "1 55604U 23020AM  26139.71915389  .00001250  00000+0  54947-4 0  9991", "line2": "2 55604  43.0022 298.2658 0001424 270.4003  89.6686 15.27577405180072"}, {"name": "STARLINK-5725", "line1": "1 55605U 23020AN  26139.78789284  .00000455  00000+0  26064-4 0  9997", "line2": "2 55605  43.0033 312.6396 0001013 271.1233  88.9502 15.27575579179912"}, {"name": "STARLINK-5700", "line1": "1 55607U 23020AQ  26139.80200739  .00052658  00000+0  19268-2 0  9993", "line2": "2 55607  43.0025 312.7475 0001484 266.9546  93.1136 15.27283356179915"}, {"name": "STARLINK-5726", "line1": "1 55608U 23020AR  26139.80588141  .00001024  00000+0  46765-4 0  9995", "line2": "2 55608  43.0059 312.7694 0002157 273.6316  86.4289 15.27573574179912"}, {"name": "STARLINK-5719", "line1": "1 55609U 23020AS  26139.53663766  .00015346  00000+0  56749-3 0  9997", "line2": "2 55609  43.0040 314.1950 0001495 256.7062 103.3623 15.27494346179873"}, {"name": "STARLINK-5722", "line1": "1 55610U 23020AT  26139.81359401  .00000543  00000+0  29261-4 0  9991", "line2": "2 55610  43.0048 312.8202 0001587 275.3422  84.7249 15.27569875179918"}, {"name": "STARLINK-5730", "line1": "1 55611U 23020AU  26139.88539940  .00000695  00000+0  34796-4 0  9994", "line2": "2 55611  43.0033 312.4965 0001483 248.1662 111.9032 15.27567645179921"}, {"name": "STARLINK-5734", "line1": "1 55612U 23020AV  26139.75500432  .00001437  00000+0  63241-4 0  9997", "line2": "2 55612  43.0046 313.2495 0001599 267.8975  92.1693 15.26749235179903"}, {"name": "STARLINK-5714", "line1": "1 55614U 23020AX  26139.72558327  .00005231  00000+0  19940-3 0  9994", "line2": "2 55614  43.0009 298.2715 0001352 253.1924 106.8780 15.27595063180079"}, {"name": "STARLINK-5712", "line1": "1 55615U 23020AY  26139.76846893  .00054425  00000+0  19942-2 0  9997", "line2": "2 55615  43.0038 312.4882 0001916 277.6721  82.3913 15.27224167179919"}, {"name": "STARLINK-5710", "line1": "1 55616U 23020AZ  26139.77889900  .00000713  00000+0  35436-4 0  9994", "line2": "2 55616  43.0004 312.5700 0000985 249.6593 110.4153 15.27575060179914"}, {"name": "STARLINK-5721", "line1": "1 55617U 23020BA  26139.83778271  .00054864  00000+0  20070-2 0  9992", "line2": "2 55617  43.0021 312.1452 0001316 146.6993 213.3942 15.27275273179926"}]